SENTINEL-5P             
1 42969U 17064A   26198.22886611  .00000010  00000+0  25841-4 0  9992
2 42969  98.7929 140.1476 0001162  93.4118 266.7191 14.19523435453826
