{"fetched_at":"2026-07-17T17:38:34.954Z","source":"https://celestrak.org/NORAD/elements/gp.php?NAME=SENTINEL&FORMAT=JSON","constellation":"sentinel-5p","records":[{"OBJECT_NAME":"SENTINEL-5P","OBJECT_ID":"2017-064A","EPOCH":"2026-07-17T05:29:34.031904","CLASSIFICATION_TYPE":"U","MEAN_MOTION":14.19523435,"ECCENTRICITY":0.00011624,"INCLINATION":98.7929,"RA_OF_ASC_NODE":140.1476,"ARG_OF_PERICENTER":93.4118,"MEAN_ANOMALY":266.7191,"EPHEMERIS_TYPE":0,"NORAD_CAT_ID":42969,"ELEMENT_SET_NO":999,"REV_AT_EPOCH":45382,"BSTAR":0.000025841305,"MEAN_MOTION_DOT":1e-7,"MEAN_MOTION_DDOT":0}]}
